COSMOS 2482             
1 39057U 13001A   23300.55627527  .00000029  00000+0  13674-3 0  9990
2 39057  82.4940  99.8667 0027140 327.9550  31.9878 12.42946031488999
COSMOS 2483             
1 39058U 13001B   23300.54821862  .00000011  00000+0  54860-5 0  9993
2 39058  82.4955  95.4849 0016107 320.7110  39.2800 12.43985607481772
COSMOS 2484             
1 39059U 13001C   23300.53679052  .00000023  00000+0  93025-4 0  9993
2 39059  82.4973 101.0734 0025992 337.0735  22.9182 12.42885103488842
TDRS 11                 
1 39070U 13004A   23300.29466007  .00000077  00000+0  00000+0 0  9991
2 39070   2.6940   2.9567 0004085  84.4331 239.9706  1.00272238 37024
GLOBALSTAR M097         
1 39072U 13005A   23300.25533408 -.00000078  00000+0  14356-3 0  9995
2 39072  52.0049 297.6447 0000661  46.5808 313.5113 12.62271959495173
GLOBALSTAR M093         
1 39073U 13005B   23300.38718507 -.00000087  00000+0  95439-4 0  9997
2 39073  51.9810 291.5044 0000905  42.0440 318.0495 12.62267990495148
GLOBALSTAR M094         
1 39074U 13005C   23300.46642278 -.00000081  00000+0  12536-3 0  9998
2 39074  51.9950 205.0464 0001007  65.2324 294.8647 12.62268919496763
GLOBALSTAR M096         
1 39075U 13005D   23300.55877002 -.00000107  00000+0 -19646-4 0  9994
2 39075  52.0068 252.8113 0000905  49.9512 310.1434 12.62265202495690
GLOBALSTAR M078         
1 39076U 13005E   23300.37381655  .00000038  00000+0  78934-3 0  9994
2 39076  51.9889 338.6982 0000602 306.7471  53.3340 12.62262604494299
GLOBALSTAR M095         
1 39077U 13005F   23300.55882029 -.00000068  00000+0  19721-3 0  9999
2 39077  51.9815 335.6308 0000589   2.9369 357.1501 12.62270020494175
AMAZONAS 3              
1 39078U 13006A   23300.47633670 -.00000285  00000+0  00000+0 0  9995
2 39078   0.0222 178.9475 0005021  38.0015 289.1285  1.00271344 35242
AZERSPACE 1             
1 39079U 13006B   23299.87209698  .00000129  00000+0  00000+0 0  9992
2 39079   0.0480  71.0227 0001437 127.3371 196.5579  1.00271266 39133
LANDSAT 8               
1 39084U 13008A   23300.52329164  .00000606  00000+0  14457-3 0  9991
2 39084  98.2135   8.7391 0001300  86.5248 273.6099 14.57106575557564
SARAL                   
1 39086U 13009A   23300.55429272  .00000198  00000+0  89464-4 0  9995
2 39086  98.5480 123.9495 0000866 238.7708 121.3391 14.32284086557634
SAPPHIRE                
1 39088U 13009C   23300.49554475  .00000250  00000+0  10370-3 0  9992
2 39088  98.4113 128.4409 0010366 235.0900 124.9312 14.34533715558375
NEOSSAT                 
1 39089U 13009D   23300.47077592  .00000337  00000+0  13330-3 0  9996
2 39089  98.4058 128.9838 0010201 235.4134 124.6090 14.34964955558482
STRAND-1                
1 39090U 13009E   23300.49188479  .00000518  00000+0  19383-3 0  9992
2 39090  98.3835 130.2245 0008023 225.4798 134.5733 14.35745048558708
BRITE-AUSTRIA           
1 39091U 13009F   23300.50294748  .00000339  00000+0  13230-3 0  9998
2 39091  98.3869 129.4816 0009394 233.5541 126.4780 14.35584750558734
SBIRS GEO-2 (USA 241)   
1 39120U 13011A   23300.30070137 -.00000259  00000+0  00000+0 0  9995
2 39120   2.5677  41.9872 0002135 178.3613 245.3301  1.00271483 38875
EUTELSAT 117 WEST A     
1 39122U 13012A   23300.57249316 -.00000016  00000+0  00000+0 0  9995
2 39122   0.0128  80.5786 0002918 132.0329 272.3501  1.00271545 38774
ANIK G1                 
1 39127U 13014A   23300.40428030 -.00000077  00000+0  00000+0 0  9993
2 39127   0.0558  79.4632 0002558 150.6472 203.6641  1.00270869 38587
BEESAT-3                
1 39135U 13015F   23300.23269367  .00186342  00000+0  19407-2 0  9993
2 39135  64.8487 248.6359 0011096 258.7310 101.2592 15.63649997582419
BEESAT-2                
1 39136U 13015G   23300.47397330  .00105651  00000+0  14773-2 0  9997
2 39136  64.8608 262.6422 0021629 265.0246  94.8430 15.55996876582133
GAOFEN-1                
1 39150U 13018A   23300.52814840  .00001159  00000+0  17327-3 0  9999
2 39150  98.0175  10.0315 0021793 124.0517 236.2765 14.76488618566047
NEE-01 PEGASO           
1 39151U 13018B   23300.55292364  .00003634  00000+0  44529-3 0  9998
2 39151  98.0200  51.0954 0016859  82.1972 278.1155 14.83690481567306
COSMOS 2485 [GLONASS-M] 
1 39155U 13019A   23300.52265838  .00000060  00000+0  00000+0 0  9998
2 39155  64.9525 106.0619 0022093 226.0805 133.7553  2.13101748 81742
CHINASAT 11 (ZX 11)     
1 39157U 13020A   23300.59645899 -.00000293  00000+0  00000+0 0  9997
2 39157   0.0188 220.3892 0002322  47.9956  79.9218  1.00268927 38236
PROBA-V                 
1 39159U 13021A   23300.03422722  .00000131  00000+0  75738-4 0  9992
2 39159  98.3156 314.5677 0005415  81.0641 279.1151 14.23167261543954
VNREDSAT 1              
1 39160U 13021B   23300.52973964  .00001010  00000+0  20611-3 0  9993
2 39160  98.0277   9.0407 0001101  86.3861 273.7467 14.62963775559262
ESTCUBE 1               
1 39161U 13021C   23300.13223169  .00002352  00000+0  35726-3 0  9999
2 39161  97.8598   8.6156 0007839 264.3145  95.7170 14.74952012562575
EUTELSAT 7B             
1 39163U 13022A   23300.29423817  .00000044  00000+0  00000+0 0  9990
2 39163   0.0721  13.1147 0002173 297.2868 197.9324  1.00270251 38303
NAVSTAR 68 (USA 242)    
1 39166U 13023A   23300.42742102 -.00000048  00000+0  00000+0 0  9995
2 39166  55.3147 307.9853 0115753  41.5278 319.3716  2.00564090 76555
WGS F5 (USA 243)        
1 39168U 13024A   23300.07539740 -.00000288  00000+0  00000+0 0  9997
2 39168   0.0187 206.8439 0000429  23.9149 139.0903  1.00271056 37502
SES-6                   
1 39172U 13026A   23299.17549583 -.00000266  00000+0  00000+0 0  9994
2 39172   0.0332 303.2444 0002489 268.3014 205.4459  1.00270586 38042
COSMOS 2486             
1 39177U 13028A   23300.55332635  .00000337  00000+0  87648-4 0  9990
2 39177  97.9129 296.9955 0012021 135.3123 224.9046 14.55137620551186
RESURS P1               
1 39186U 13030A   23300.58880009  .00024405  00000+0  41764-3 0  9999
2 39186  97.0526 348.3367 0010138 353.1673   6.9440 15.51186969544987
O3B FM5                 
1 39188U 13031A   23299.00593364 -.00000020  00000+0  00000+0 0  9993
2 39188   0.0349 359.7266 0002994 212.2888 147.9717  5.00115651188759
O3B FM4                 
1 39189U 13031B   23298.86167063 -.00000019  00000+0  00000+0 0  9998
2 39189   0.0607  12.2426 0002957 198.6806 149.0647  5.00116257188761
O3B FM2                 
1 39190U 13031C   23299.75323175 -.00000020  00000+0  00000+0 0  9999
2 39190   0.0653  14.1816 0002798 199.2100 146.5962  5.00115283188866
O3B PFM                 
1 39191U 13031D   23299.57912291 -.00000020  00000+0  00000+0 0  9993
2 39191   0.0434   3.4816 0002574 210.9281 145.5790  5.00115908188411
IRIS                    
1 39197U 13033A   23300.46639024  .00002562  00000+0  33707-3 0  9998
2 39197  97.9668 127.4694 0025786 217.7881 142.1522 14.80837093557480
IRNSS-1A                
1 39199U 13034A   23298.00396561  .00000100  00000+0  00000+0 0  9995
2 39199  33.5421  77.9402 0022019 179.8099 191.8389  1.00269607 37681
SJ-11-05                
1 39202U 13035A   23300.55942775  .00001008  00000+0  21006-3 0  9990
2 39202  98.2325 106.8514 0011313  18.3671 341.7936 14.62106342548275
MUOS-2                  
1 39206U 13036A   23300.60963692  .00000064  00000+0  00000+0 0  9990
2 39206   3.2579  36.5412 0058845 179.5034 222.1672  1.00275268 37539
SHIYAN 7 (SY-7)         
1 39208U 13037A   23300.48990434  .00001026  00000+0  18102-3 0  9998
2 39208  98.0558 296.0516 0007834 345.0786  15.0187 14.69545196550522
CHUANGXIN-3 (CX-3)      
1 39209U 13037B   23300.47670463  .00001653  00000+0  28220-3 0  9993
2 39209  98.0580 296.7969 0004065 348.0898  12.0212 14.70257188550515
SHIJIAN-15 (SJ-15)      
1 39210U 13037C   23300.56513459  .00001140  00000+0  20399-3 0  9996
2 39210  98.0694 295.3573 0006130 343.6905  16.4102 14.68740866552733
ALPHASAT                
1 39215U 13038A   23300.29780611  .00000131  00000+0  00000+0 0  9990
2 39215   2.8548   9.5270 0003846 213.8855 304.0657  1.00271309 34358
INSAT-3D                
1 39216U 13038B   23300.57737054 -.00000160  00000+0  00000+0 0  9998
2 39216   0.0839  87.2348 0002197 147.5553  90.8428  1.00271466 37417
WGS F6 (USA 244)        
1 39222U 13041A   23300.44277735  .00000086  00000+0  00000+0 0  9996
2 39222   0.0190 214.1172 0000663  69.3723 136.2633  1.00267654 36388
ARIRANG-5 (KOMPSAT-5)   
1 39227U 13042A   23300.52623510  .00003287  00000+0  23905-3 0  9996
2 39227  97.6189 124.7044 0001952 128.6706 231.4695 15.04509259558967
ES'HAIL 1               
1 39233U 13044A   23299.94424417  .00000139  00000+0  00000+0 0  9993
2 39233   0.0564  11.1474 0002105 198.9736 190.3628  1.00268885 36956
GSAT-7                  
1 39234U 13044B   23299.37618873 -.00000082  00000+0  00000+0 0  9990
2 39234   0.0651  82.1446 0009017 171.8853 349.9066  1.00271514 35657
AMOS-4                  
1 39237U 13045A   23299.85587519  .00000003  00000+0  00000+0 0  9991
2 39237   0.0424 108.8477 0001906 145.8367 153.4028  1.00272207 37229
YAOGAN 17A              
1 39239U 13046A   23300.58059928 -.00000062  00000+0  34390-4 0  9995
2 39239  63.3968  53.3320 0340664   7.9065 352.7143 13.45294612498642
YAOGAN 17B              
1 39240U 13046B   23300.60007516 -.00000032  00000+0  70093-4 0  9993
2 39240  63.3979  53.6599 0340737   7.5583 353.0397 13.45248298498698
YAOGAN 17C              
1 39241U 13046C   23300.58360400 -.00000061  00000+0  34661-4 0  9998
2 39241  63.3976  52.6258 0341429   7.5984 353.0031 13.45279664498732
GONETS-M 5              
1 39249U 13048A   23300.56169958  .00000020  00000+0  73580-4 0  9998
2 39249  82.4842 224.0617 0016307 150.3915 209.8091 12.42881866459171
GONETS-M 6              
1 39250U 13048B   23300.54719220  .00000016  00000+0  44276-4 0  9996
2 39250  82.4870 224.8825 0017994 185.3422 174.7468 12.42981003459225
